[{"OBJECT_NAME":"STARLINK-33548","OBJECT_ID":"2024-237P","EPOCH":"2025-10-16T02:17:22.559136","MEAN_MOTION":15.27595572,"ECCENTRICITY":0.0001065,"INCLINATION":43.001,"RA_OF_ASC_NODE":302.0946,"ARG_OF_PERICENTER":261.4249,"MEAN_ANOMALY":98.6482,"EPHEMERIS_TYPE":0,"CLASSIFICATION_TYPE":"U","NORAD_CAT_ID":62280,"ELEMENT_SET_NO":999,"REV_AT_EPOCH":4920,"BSTAR":0.0013093,"MEAN_MOTION_DOT":0.00035959,"MEAN_MOTION_DDOT":0},{"OBJECT_NAME":"STARLINK-33544","OBJECT_ID":"2024-237Q","EPOCH":"2025-10-16T02:00:41.750784","MEAN_MOTION":15.275811,"ECCENTRICITY":8.88e-5,"INCLINATION":42.9976,"RA_OF_ASC_NODE":313.255,"ARG_OF_PERICENTER":142.1307,"MEAN_ANOMALY":217.9607,"EPHEMERIS_TYPE":0,"CLASSIFICATION_TYPE":"U","NORAD_CAT_ID":62281,"ELEMENT_SET_NO":999,"REV_AT_EPOCH":4907,"BSTAR":7.3464e-5,"MEAN_MOTION_DOT":1.76e-5,"MEAN_MOTION_DDOT":0},{"OBJECT_NAME":"STARLINK-33560","OBJECT_ID":"2024-237R","EPOCH":"2025-10-16T03:08:56.740128","MEAN_MOTION":15.27602539,"ECCENTRICITY":0.0001264,"INCLINATION":43.0016,"RA_OF_ASC_NODE":312.7484,"ARG_OF_PERICENTER":250.7584,"MEAN_ANOMALY":109.3131,"EPHEMERIS_TYPE":0,"CLASSIFICATION_TYPE":"U","NORAD_CAT_ID":62282,"ELEMENT_SET_NO":999,"REV_AT_EPOCH":4899,"BSTAR":0.0015636,"MEAN_MOTION_DOT":0.00043047,"MEAN_MOTION_DDOT":0},{"OBJECT_NAME":"STARLINK-33547","OBJECT_ID":"2024-237S","EPOCH":"2025-10-16T00:37:40.296576","MEAN_MOTION":15.27588002,"ECCENTRICITY":0.0001383,"INCLINATION":43.0034,"RA_OF_ASC_NODE":302.4328,"ARG_OF_PERICENTER":247.3605,"MEAN_ANOMALY":112.71,"EPHEMERIS_TYPE":0,"CLASSIFICATION_TYPE":"U","NORAD_CAT_ID":62283,"ELEMENT_SET_NO":999,"REV_AT_EPOCH":4919,"BSTAR":0.0012493,"MEAN_MOTION_DOT":0.00034285,"MEAN_MOTION_DDOT":0},{"OBJECT_NAME":"STARLINK-33563","OBJECT_ID":"2024-237T","EPOCH":"2025-10-16T01:44:02.976288","MEAN_MOTION":15.2759859,"ECCENTRICITY":0.000104,"INCLINATION":43.0012,"RA_OF_ASC_NODE":313.1658,"ARG_OF_PERICENTER":291.518,"MEAN_ANOMALY":68.5561,"EPHEMERIS_TYPE":0,"CLASSIFICATION_TYPE":"U","NORAD_CAT_ID":62284,"ELEMENT_SET_NO":999,"REV_AT_EPOCH":4907,"BSTAR":0.0017668,"MEAN_MOTION_DOT":0.00048705,"MEAN_MOTION_DDOT":0},{"OBJECT_NAME":"STARLINK-33550","OBJECT_ID":"2024-237U","EPOCH":"2025-10-16T03:03:24.124320","MEAN_MOTION":15.27560483,"ECCENTRICITY":0.000129,"INCLINATION":43.0024,"RA_OF_ASC_NODE":312.7189,"ARG_OF_PERICENTER":280.7763,"MEAN_ANOMALY":79.2943,"EPHEMERIS_TYPE":0,"CLASSIFICATION_TYPE":"U","NORAD_CAT_ID":62285,"ELEMENT_SET_NO":999,"REV_AT_EPOCH":4908,"BSTAR":0.00062172,"MEAN_MOTION_DOT":0.00016875,"MEAN_MOTION_DDOT":0},{"OBJECT_NAME":"STARLINK-33564","OBJECT_ID":"2024-237V","EPOCH":"2025-10-15T08:33:52.608096","MEAN_MOTION":15.27607866,"ECCENTRICITY":0.00010344,"INCLINATION":43.002,"RA_OF_ASC_NODE":317.2578,"ARG_OF_PERICENTER":259.9995,"MEAN_ANOMALY":100.074,"EPHEMERIS_TYPE":0,"CLASSIFICATION_TYPE":"U","NORAD_CAT_ID":62286,"ELEMENT_SET_NO":999,"REV_AT_EPOCH":4896,"BSTAR":0.0010781378,"MEAN_MOTION_DOT":0.0002955,"MEAN_MOTION_DDOT":0},{"OBJECT_NAME":"STARLINK-33546","OBJECT_ID":"2024-237W","EPOCH":"2025-10-15T19:21:51.981696","MEAN_MOTION":15.27581915,"ECCENTRICITY":0.00014303,"INCLINATION":43.0017,"RA_OF_ASC_NODE":314.6127,"ARG_OF_PERICENTER":276.001,"MEAN_ANOMALY":84.0678,"EPHEMERIS_TYPE":0,"CLASSIFICATION_TYPE":"U","NORAD_CAT_ID":62287,"ELEMENT_SET_NO":999,"REV_AT_EPOCH":4894,"BSTAR":0.0008998684,"MEAN_MOTION_DOT":0.00024584,"MEAN_MOTION_DDOT":0},{"OBJECT_NAME":"STARLINK-33565","OBJECT_ID":"2024-237X","EPOCH":"2025-10-16T01:29:15.731232","MEAN_MOTION":15.27591051,"ECCENTRICITY":0.0001079,"INCLINATION":42.9997,"RA_OF_ASC_NODE":301.841,"ARG_OF_PERICENTER":251.9,"MEAN_ANOMALY":108.1734,"EPHEMERIS_TYPE":0,"CLASSIFICATION_TYPE":"U","NORAD_CAT_ID":62288,"ELEMENT_SET_NO":999,"REV_AT_EPOCH":4920,"BSTAR":0.001526,"MEAN_MOTION_DOT":0.00041983,"MEAN_MOTION_DDOT":0},{"OBJECT_NAME":"STARLINK-33549","OBJECT_ID":"2024-237Y","EPOCH":"2025-10-15T10:13:34.748832","MEAN_MOTION":15.27598821,"ECCENTRICITY":0.00016585,"INCLINATION":42.998,"RA_OF_ASC_NODE":316.9179,"ARG_OF_PERICENTER":274.4657,"MEAN_ANOMALY":85.6005,"EPHEMERIS_TYPE":0,"CLASSIFICATION_TYPE":"U","NORAD_CAT_ID":62289,"ELEMENT_SET_NO":999,"REV_AT_EPOCH":4897,"BSTAR":0.0012100819,"MEAN_MOTION_DOT":0.00033206,"MEAN_MOTION_DDOT":0},{"OBJECT_NAME":"STARLINK-32648","OBJECT_ID":"2024-239A","EPOCH":"2025-10-16T04:00:03.000096","MEAN_MOTION":15.31036569,"ECCENTRICITY":0.0001248,"INCLINATION":53.1606,"RA_OF_ASC_NODE":132.6314,"ARG_OF_PERICENTER":104.7629,"MEAN_ANOMALY":269.6028,"EPHEMERIS_TYPE":0,"CLASSIFICATION_TYPE":"U","NORAD_CAT_ID":62301,"ELEMENT_SET_NO":999,"REV_AT_EPOCH":589,"BSTAR":-0.00061093,"MEAN_MOTION_DOT":-0.00018886,"MEAN_MOTION_DDOT":0},{"OBJECT_NAME":"STARLINK-32594","OBJECT_ID":"2024-239B","EPOCH":"2025-10-16T00:30:59.219136","MEAN_MOTION":15.3022551,"ECCENTRICITY":1.65e-5,"INCLINATION":53.1599,"RA_OF_ASC_NODE":143.6759,"ARG_OF_PERICENTER":336.9197,"MEAN_ANOMALY":23.1797,"EPHEMERIS_TYPE":0,"CLASSIFICATION_TYPE":"U","NORAD_CAT_ID":62302,"ELEMENT_SET_NO":999,"REV_AT_EPOCH":4726,"BSTAR":0.0018641,"MEAN_MOTION_DOT":0.00055307,"MEAN_MOTION_DDOT":0},{"OBJECT_NAME":"STARLINK-32621","OBJECT_ID":"2024-239C","EPOCH":"2025-10-16T01:46:51.985920","MEAN_MOTION":15.39353987,"ECCENTRICITY":5.61e-5,"INCLINATION":53.1573,"RA_OF_ASC_NODE":132.7896,"ARG_OF_PERICENTER":82.7098,"MEAN_ANOMALY":277.397,"EPHEMERIS_TYPE":0,"CLASSIFICATION_TYPE":"U","NORAD_CAT_ID":62303,"ELEMENT_SET_NO":999,"REV_AT_EPOCH":4742,"BSTAR":-0.0022697,"MEAN_MOTION_DOT":-0.00089341,"MEAN_MOTION_DDOT":0},{"OBJECT_NAME":"STARLINK-32597","OBJECT_ID":"2024-239D","EPOCH":"2025-10-16T00:53:54.957696","MEAN_MOTION":15.39683683,"ECCENTRICITY":0.0001818,"INCLINATION":53.1577,"RA_OF_ASC_NODE":133.2756,"ARG_OF_PERICENTER":116.5829,"MEAN_ANOMALY":243.5362,"EPHEMERIS_TYPE":0,"CLASSIFICATION_TYPE":"U","NORAD_CAT_ID":62304,"ELEMENT_SET_NO":999,"REV_AT_EPOCH":4741,"BSTAR":0.0015857,"MEAN_MOTION_DOT":0.00063693,"MEAN_MOTION_DDOT":0},{"OBJECT_NAME":"STARLINK-32649","OBJECT_ID":"2024-239E","EPOCH":"2025-10-16T02:40:37.302240","MEAN_MOTION":15.3021256,"ECCENTRICITY":0.000123,"INCLINATION":53.1587,"RA_OF_ASC_NODE":145.0994,"ARG_OF_PERICENTER":92.8478,"MEAN_ANOMALY":267.2664,"EPHEMERIS_TYPE":0,"CLASSIFICATION_TYPE":"U","NORAD_CAT_ID":62305,"ELEMENT_SET_NO":999,"REV_AT_EPOCH":4725,"BSTAR":0.00060525,"MEAN_MOTION_DOT":0.00017616,"MEAN_MOTION_DDOT":0},{"OBJECT_NAME":"STARLINK-32633","OBJECT_ID":"2024-239F","EPOCH":"2025-10-16T00:15:03.642048","MEAN_MOTION":15.30245559,"ECCENTRICITY":8.0e-6,"INCLINATION":53.1583,"RA_OF_ASC_NODE":145.8853,"ARG_OF_PERICENTER":38.8278,"MEAN_ANOMALY":321.2728,"EPHEMERIS_TYPE":0,"CLASSIFICATION_TYPE":"U","NORAD_CAT_ID":62306,"ELEMENT_SET_NO":999,"REV_AT_EPOCH":4723,"BSTAR":0.0012573,"MEAN_MOTION_DOT":0.00037118,"MEAN_MOTION_DDOT":0},{"OBJECT_NAME":"STARLINK-32646","OBJECT_ID":"2024-239G","EPOCH":"2025-10-16T02:00:09.627264","MEAN_MOTION":15.39640685,"ECCENTRICITY":0.0001084,"INCLINATION":53.1581,"RA_OF_ASC_NODE":132.848,"ARG_OF_PERICENTER":92.4464,"MEAN_ANOMALY":267.6665,"EPHEMERIS_TYPE":0,"CLASSIFICATION_TYPE":"U","NORAD_CAT_ID":62307,"ELEMENT_SET_NO":999,"REV_AT_EPOCH":4742,"BSTAR":0.0008373,"MEAN_MOTION_DOT":0.0003326,"MEAN_MOTION_DDOT":0},{"OBJECT_NAME":"STARLINK-32706","OBJECT_ID":"2024-239H","EPOCH":"2025-10-16T02:31:41.566080","MEAN_MOTION":15.30224443,"ECCENTRICITY":0.0001018,"INCLINATION":53.1573,"RA_OF_ASC_NODE":145.7676,"ARG_OF_PERICENTER":129.549,"MEAN_ANOMALY":230.5601,"EPHEMERIS_TYPE":0,"CLASSIFICATION_TYPE":"U","NORAD_CAT_ID":62308,"ELEMENT_SET_NO":999,"REV_AT_EPOCH":4724,"BSTAR":0.0010915,"MEAN_MOTION_DOT":0.00032132,"MEAN_MOTION_DDOT":0},{"OBJECT_NAME":"STARLINK-32678","OBJECT_ID":"2024-239J","EPOCH":"2025-10-16T04:00:03.000096","MEAN_MOTION":15.30161351,"ECCENTRICITY":8.95e-5,"INCLINATION":53.1599,"RA_OF_ASC_NODE":132.5791,"ARG_OF_PERICENTER":94.4306,"MEAN_ANOMALY":305.2105,"EPHEMERIS_TYPE":0,"CLASSIFICATION_TYPE":"U","NORAD_CAT_ID":62309,"ELEMENT_SET_NO":999,"REV_AT_EPOCH":594,"BSTAR":0.00049786,"MEAN_MOTION_DOT":0.00014397,"MEAN_MOTION_DDOT":0},{"OBJECT_NAME":"STARLINK-32696","OBJECT_ID":"2024-239K","EPOCH":"2025-10-16T02:27:06.456384","MEAN_MOTION":15.30215346,"ECCENTRICITY":0.0001099,"INCLINATION":53.1574,"RA_OF_ASC_NODE":145.7494,"ARG_OF_PERICENTER":87.2779,"MEAN_ANOMALY":272.8347,"EPHEMERIS_TYPE":0,"CLASSIFICATION_TYPE":"U","NORAD_CAT_ID":62310,"ELEMENT_SET_NO":999,"REV_AT_EPOCH":4724,"BSTAR":0.00076157,"MEAN_MOTION_DOT":0.00022275,"MEAN_MOTION_DDOT":0},{"OBJECT_NAME":"STARLINK-32700","OBJECT_ID":"2024-239L","EPOCH":"2025-10-16T04:00:03.000096","MEAN_MOTION":15.37194683,"ECCENTRICITY":0.0001007,"INCLINATION":53.1592,"RA_OF_ASC_NODE":132.6211,"ARG_OF_PERICENTER":102.531,"MEAN_ANOMALY":277.6538,"EPHEMERIS_TYPE":0,"CLASSIFICATION_TYPE":"U","NORAD_CAT_ID":62311,"ELEMENT_SET_NO":999,"REV_AT_EPOCH":579,"BSTAR":-0.033002,"MEAN_MOTION_DOT":-0.01115556,"MEAN_MOTION_DDOT":0},{"OBJECT_NAME":"STARLINK-32698","OBJECT_ID":"2024-239M","EPOCH":"2025-10-16T02:36:13.573152","MEAN_MOTION":15.30211861,"ECCENTRICITY":0.0001008,"INCLINATION":53.1577,"RA_OF_ASC_NODE":145.7868,"ARG_OF_PERICENTER":77.6999,"MEAN_ANOMALY":282.4115,"EPHEMERIS_TYPE":0,"CLASSIFICATION_TYPE":"U","NORAD_CAT_ID":62312,"ELEMENT_SET_NO":999,"REV_AT_EPOCH":4724,"BSTAR":0.00085043,"MEAN_MOTION_DOT":0.00024922,"MEAN_MOTION_DDOT":0},{"OBJECT_NAME":"STARLINK-32634","OBJECT_ID":"2024-239N","EPOCH":"2025-10-16T00:47:13.125984","MEAN_MOTION":15.3965587,"ECCENTRICITY":0.0001172,"INCLINATION":53.1578,"RA_OF_ASC_NODE":133.2446,"ARG_OF_PERICENTER":92.6064,"MEAN_ANOMALY":267.5075,"EPHEMERIS_TYPE":0,"CLASSIFICATION_TYPE":"U","NORAD_CAT_ID":62313,"ELEMENT_SET_NO":999,"REV_AT_EPOCH":4741,"BSTAR":0.00092439,"MEAN_MOTION_DOT":0.00036798,"MEAN_MOTION_DDOT":0}]
